[
    {
        "Altitude(m)": 704782.8230988899,
        "Argument of Periapsis(deg)": 0.0011390121186627068,
        "Eccentricity": 0.0,
        "Inclination(deg)": 45.0,
        "Latitude(deg)": 33.04836962902034,
        "Longitude(deg)": -174.72546035520145,
        "Mean Anomaly(deg)": 50.244221664748096,
        "RAAN(deg)": 244.99892480585416,
        "Satellite Name": "Constellation 1 1081",
        "Satellite Number": 1081,
        "Semi-Major Axis(m)": 7083131.272910544,
        "Time(s)": 19
    },
    {
        "Altitude(m)": 704788.7949095903,
        "Argument of Periapsis(deg)": 0.0011989601249081123,
        "Eccentricity": 0.0,
        "Inclination(deg)": 45.0,
        "Latitude(deg)": 33.081217578711765,
        "Longitude(deg)": -174.66865089933694,
        "Mean Anomaly(deg)": 50.30492280499798,
        "RAAN(deg)": 244.9988682166886,
        "Satellite Name": "Constellation 1 1081",
        "Satellite Number": 1081,
        "Semi-Major Axis(m)": 7083131.272910544,
        "Time(s)": 20
    },
    {
        "Altitude(m)": 704794.7674951415,
        "Argument of Periapsis(deg)": 0.001258908131153518,
        "Eccentricity": 0.0,
        "Inclination(deg)": 45.0,
        "Latitude(deg)": 33.11403557945575,
        "Longitude(deg)": -174.61179618996277,
        "Mean Anomaly(deg)": 50.36562394524786,
        "RAAN(deg)": 244.99881162752305,
        "Satellite Name": "Constellation 1 1081",
        "Satellite Number": 1081,
        "Semi-Major Axis(m)": 7083131.272910544,
        "Time(s)": 21
    },
    {
        "Altitude(m)": 704800.7408165629,
        "Argument of Periapsis(deg)": 0.0013188561373989236,
        "Eccentricity": 0.0,
        "Inclination(deg)": 45.0,
        "Latitude(deg)": 33.14682357223658,
        "Longitude(deg)": -174.55489634608892,
        "Mean Anomaly(deg)": 50.42632508549776,
        "RAAN(deg)": 244.9987550383575,
        "Satellite Name": "Constellation 1 1081",
        "Satellite Number": 1081,
        "Semi-Major Axis(m)": 7083131.272910544,
        "Time(s)": 22
    },
    {
        "Altitude(m)": 704806.7148348943,
        "Argument of Periapsis(deg)": 0.0013788041436443293,
        "Eccentricity": 0.0,
        "Inclination(deg)": 45.0,
        "Latitude(deg)": 33.17958149796637,
        "Longitude(deg)": -174.49795098256936,
        "Mean Anomaly(deg)": 50.48702622574764,
        "RAAN(deg)": 244.99869844919195,
        "Satellite Name": "Constellation 1 1081",
        "Satellite Number": 1081,
        "Semi-Major Axis(m)": 7083131.272910544,
        "Time(s)": 23
    },
    {
        "Altitude(m)": 704812.6895111768,
        "Argument of Periapsis(deg)": 0.001438752149889735,
        "Eccentricity": 0.0,
        "Inclination(deg)": 45.0,
        "Latitude(deg)": 33.212309297487124,
        "Longitude(deg)": -174.44096021868558,
        "Mean Anomaly(deg)": 50.54772736599758,
        "RAAN(deg)": 244.99864186002634,
        "Satellite Name": "Constellation 1 1081",
        "Satellite Number": 1081,
        "Semi-Major Axis(m)": 7083131.272910544,
        "Time(s)": 24
    },
    {
        "Altitude(m)": 704818.6648064837,
        "Argument of Periapsis(deg)": 0.0014987001561351404,
        "Eccentricity": 0.0,
        "Inclination(deg)": 45.0,
        "Latitude(deg)": 33.24500691156943,
        "Longitude(deg)": -174.38392400575924,
        "Mean Anomaly(deg)": 50.60842850624746,
        "RAAN(deg)": 244.99858527086076,
        "Satellite Name": "Constellation 1 1081",
        "Satellite Number": 1081,
        "Semi-Major Axis(m)": 7083131.272910544,
        "Time(s)": 25
    },
    {
        "Altitude(m)": 704824.6406818841,
        "Argument of Periapsis(deg)": 0.001558648162380546,
        "Eccentricity": 0.0,
        "Inclination(deg)": 45.0,
        "Latitude(deg)": 33.27767428091295,
        "Longitude(deg)": -174.3268422952503,
        "Mean Anomaly(deg)": 50.669129646497346,
        "RAAN(deg)": 244.9985286816952,
        "Satellite Name": "Constellation 1 1081",
        "Satellite Number": 1081,
        "Semi-Major Axis(m)": 7083131.272910544,
        "Time(s)": 26
    },
    {
        "Altitude(m)": 704830.6170984677,
        "Argument of Periapsis(deg)": 0.0016185961686259519,
        "Eccentricity": 0.0,
        "Inclination(deg)": 45.0,
        "Latitude(deg)": 33.31031134614653,
        "Longitude(deg)": -174.26971503875814,
        "Mean Anomaly(deg)": 50.729830786747236,
        "RAAN(deg)": 244.99847209252965,
        "Satellite Name": "Constellation 1 1081",
        "Satellite Number": 1081,
        "Semi-Major Axis(m)": 7083131.272910544,
        "Time(s)": 27
    },
    {
        "Altitude(m)": 704836.5940173386,
        "Argument of Periapsis(deg)": 0.0016785441748713573,
        "Eccentricity": 0.0,
        "Inclination(deg)": 45.0,
        "Latitude(deg)": 33.34291804782811,
        "Longitude(deg)": -174.21254218802255,
        "Mean Anomaly(deg)": 50.79053192699717,
        "RAAN(deg)": 244.9984155033641,
        "Satellite Name": "Constellation 1 1081",
        "Satellite Number": 1081,
        "Semi-Major Axis(m)": 7083131.272910544,
        "Time(s)": 28
    },
    {
        "Altitude(m)": 704842.5713996153,
        "Argument of Periapsis(deg)": 0.001738492181116763,
        "Eccentricity": 0.0,
        "Inclination(deg)": 45.0,
        "Latitude(deg)": 33.375494326444986,
        "Longitude(deg)": -174.1553236949247,
        "Mean Anomaly(deg)": 50.851233067247065,
        "RAAN(deg)": 244.99835891419852,
        "Satellite Name": "Constellation 1 1081",
        "Satellite Number": 1081,
        "Semi-Major Axis(m)": 7083131.272910544,
        "Time(s)": 29
    },
    {
        "Altitude(m)": 704848.5492064216,
        "Argument of Periapsis(deg)": 0.0017984401873621684,
        "Eccentricity": 0.0,
        "Inclination(deg)": 45.0,
        "Latitude(deg)": 33.40804012241416,
        "Longitude(deg)": -174.09805967958533,
        "Mean Anomaly(deg)": 50.91193420749695,
        "RAAN(deg)": 244.9983023250329,
        "Satellite Name": "Constellation 1 1081",
        "Satellite Number": 1081,
        "Semi-Major Axis(m)": 7083131.272910544,
        "Time(s)": 30
    },
    {
        "Altitude(m)": 704854.5273989124,
        "Argument of Periapsis(deg)": 0.0018583881936075745,
        "Eccentricity": 0.0,
        "Inclination(deg)": 45.0,
        "Latitude(deg)": 33.44055537608107,
        "Longitude(deg)": -174.0407497579774,
        "Mean Anomaly(deg)": 50.97263534774689,
        "RAAN(deg)": 244.99824573586736,
        "Satellite Name": "Constellation 1 1081",
        "Satellite Number": 1081,
        "Semi-Major Axis(m)": 7083131.272910544,
        "Time(s)": 31
    },
    {
        "Altitude(m)": 704860.505938236,
        "Argument of Periapsis(deg)": 0.0019183361998529795,
        "Eccentricity": 0.0,
        "Inclination(deg)": 45.0,
        "Latitude(deg)": 33.473040027721765,
        "Longitude(deg)": -173.9833940505096,
        "Mean Anomaly(deg)": 51.03333648799677,
        "RAAN(deg)": 244.9981891467018,
        "Satellite Name": "Constellation 1 1081",
        "Satellite Number": 1081,
        "Semi-Major Axis(m)": 7083131.272910544,
        "Time(s)": 32
    },
    {
        "Altitude(m)": 704866.4847855754,
        "Argument of Periapsis(deg)": 0.0019782842060983856,
        "Eccentricity": 0.0,
        "Inclination(deg)": 45.0,
        "Latitude(deg)": 33.50549401754152,
        "Longitude(deg)": -173.9259925096392,
        "Mean Anomaly(deg)": 51.09403762824665,
        "RAAN(deg)": 244.99813255753625,
        "Satellite Name": "Constellation 1 1081",
        "Satellite Number": 1081,
        "Semi-Major Axis(m)": 7083131.272910544,
        "Time(s)": 33
    },
    {
        "Altitude(m)": 704872.4639021121,
        "Argument of Periapsis(deg)": 0.0020382322123437906,
        "Eccentricity": 0.0,
        "Inclination(deg)": 45.0,
        "Latitude(deg)": 33.537917285675384,
        "Longitude(deg)": -173.86854508797003,
        "Mean Anomaly(deg)": 51.15473876849654,
        "RAAN(deg)": 244.99807596837067,
        "Satellite Name": "Constellation 1 1081",
        "Satellite Number": 1081,
        "Semi-Major Axis(m)": 7083131.272910544,
        "Time(s)": 34
    },
    {
        "Altitude(m)": 704878.4432490589,
        "Argument of Periapsis(deg)": 0.002098180218589197,
        "Eccentricity": 0.0,
        "Inclination(deg)": 45.0,
        "Latitude(deg)": 33.570309772188224,
        "Longitude(deg)": -173.81105173825387,
        "Mean Anomaly(deg)": 51.215439908746475,
        "RAAN(deg)": 244.9980193792051,
        "Satellite Name": "Constellation 1 1081",
        "Satellite Number": 1081,
        "Semi-Major Axis(m)": 7083131.272910544,
        "Time(s)": 35
    },
    {
        "Altitude(m)": 704884.4227876269,
        "Argument of Periapsis(deg)": 0.002158128224834602,
        "Eccentricity": 0.0,
        "Inclination(deg)": 45.0,
        "Latitude(deg)": 33.60267141707482,
        "Longitude(deg)": -173.75351241339084,
        "Mean Anomaly(deg)": 51.27614104899637,
        "RAAN(deg)": 244.99796279003954,
        "Satellite Name": "Constellation 1 1081",
        "Satellite Number": 1081,
        "Semi-Major Axis(m)": 7083131.272910544,
        "Time(s)": 36
    },
    {
        "Altitude(m)": 704890.4024790511,
        "Argument of Periapsis(deg)": 0.002218076231080008,
        "Eccentricity": 0.0,
        "Inclination(deg)": 45.0,
        "Latitude(deg)": 33.63500216026033,
        "Longitude(deg)": -173.69592723452826,
        "Mean Anomaly(deg)": 51.336842189246255,
        "RAAN(deg)": 244.99790620087396,
        "Satellite Name": "Constellation 1 1081",
        "Satellite Number": 1081,
        "Semi-Major Axis(m)": 7083131.272910544,
        "Time(s)": 37
    }
]